STARLINK-1934
1 16792C 20074BF  21326.08663802  .00004174  00000-0  27966-3 0  3261
2 16792  53.0505 153.3533 0001751  86.4517 143.4126 15.06391132    19
